start=new Date('2022-04-10T00:00:00.000Z').valueOf();
sats=[{"FILE":"3395351","MEAN_ANOMALY":"317.5384","ELEMENT_SET_NO":"999","MEAN_MOTION":"15.06399454","OBJECT_ID":"2021-040BF","RA_OF_ASC_NODE":"141.5923","SEMIMAJOR_AXIS":"6925.350","CLASSIFICATION_TYPE":"U","MEAN_MOTION_DDOT":"0.0000000000000","EPOCH":"2022-04-09T14:08:53.382336","REV_AT_EPOCH":"5079","APOAPSIS":"548.414","DECAY_DATE":null,"ECCENTRICITY":"0.00017310","GP_ID":"200862466","INCLINATION":"53.0531","TLE_LINE1":"1 48481U 21040BF  22099.58950674 -.00002031  00000-0 -11750-3 0  9993","REF_FRAME":"TEME","SITE":"AFETR","MEAN_ELEMENT_THEORY":"SGP4","BSTAR":"-0.00011750000000","RCS_SIZE":"LARGE","TIME_SYSTEM":"UTC","NORAD_CAT_ID":"48481","EPHEMERIS_TYPE":"0","ARG_OF_PERICENTER":"42.5738","OBJECT_TYPE":"PAYLOAD","MEAN_MOTION_DOT":"-0.00002031","PERIOD":"95.592","COUNTRY_CODE":"US","TLE_LINE2":"2 48481  53.0531 141.5923 0001731  42.5738 317.5384 15.06399454 50798","PERIAPSIS":"546.016","CENTER_NAME":"EARTH","LAUNCH_DATE":"2021-05-09","OBJECT_NAME":"STARLINK-2706"},{"TLE_LINE2":"2 48482  53.0547 140.4354 0001650  53.8071 306.3070 15.06401279 50839","PERIAPSIS":"546.067","CENTER_NAME":"EARTH","LAUNCH_DATE":"2021-05-09","OBJECT_NAME":"STARLINK-2525","PERIOD":"95.592","COUNTRY_CODE":"US","ARG_OF_PERICENTER":"53.8071","OBJECT_TYPE":"PAYLOAD","MEAN_MOTION_DOT":"-0.00000923","SITE":"AFETR","MEAN_ELEMENT_THEORY":"SGP4","BSTAR":"-0.00004308300000","TIME_SYSTEM":"UTC","RCS_SIZE":"LARGE","EPHEMERIS_TYPE":"0","NORAD_CAT_ID":"48482","DECAY_DATE":null,"ECCENTRICITY":"0.00016500","GP_ID":"200862721","REF_FRAME":"TEME","TLE_LINE1":"1 48482U 21040BG  22099.84846570 -.00000923  00000-0 -43083-4 0  9995","INCLINATION":"53.0547","EPOCH":"2022-04-09T20:21:47.436480","REV_AT_EPOCH":"5083","APOAPSIS":"548.352","SEMIMAJOR_AXIS":"6925.345","CLASSIFICATION_TYPE":"U","MEAN_MOTION_DDOT":"0.0000000000000","MEAN_MOTION":"15.06401279","FILE":"3395351","ELEMENT_SET_NO":"999","MEAN_ANOMALY":"306.3070","RA_OF_ASC_NODE":"140.4354","OBJECT_ID":"2021-040BG"},{"MEAN_MOTION":"15.06409967","FILE":"3395230","ELEMENT_SET_NO":"999","MEAN_ANOMALY":"308.5520","OBJECT_ID":"2021-040BH","RA_OF_ASC_NODE":"142.5334","MEAN_MOTION_DDOT":"0.0000000000000","CLASSIFICATION_TYPE":"U","SEMIMAJOR_AXIS":"6925.318","APOAPSIS":"548.529","EPOCH":"2022-04-09T09:07:42.547584","REV_AT_EPOCH":"5204","TLE_LINE1":"1 48483U 21040BH  22099.38035356  .00001138  00000-0  95275-4 0  9994","INCLINATION":"53.0545","REF_FRAME":"TEME","DECAY_DATE":null,"ECCENTRICITY":"0.00019430","GP_ID":"200838359","RCS_SIZE":"LARGE","TIME_SYSTEM":"UTC","EPHEMERIS_TYPE":"0","NORAD_CAT_ID":"48483","SITE":"AFETR","MEAN_ELEMENT_THEORY":"SGP4","BSTAR":"0.00009527500000","OBJECT_TYPE":"PAYLOAD","MEAN_MOTION_DOT":"0.00001138","ARG_OF_PERICENTER":"51.5643","COUNTRY_CODE":"US","PERIOD":"95.592","OBJECT_NAME":"STARLINK-2531","PERIAPSIS":"545.837","TLE_LINE2":"2 48483  53.0545 142.5334 0001943  51.5643 308.5520 15.06409967 52045","CENTER_NAME":"EARTH","LAUNCH_DATE":"2021-05-09"},{"SEMIMAJOR_AXIS":"6925.372","MEAN_MOTION_DDOT":"0.0000000000000","CLASSIFICATION_TYPE":"U","FILE":"3395351","MEAN_ANOMALY":"298.1145","ELEMENT_SET_NO":"999","MEAN_MOTION":"15.06392415","OBJECT_ID":"2021-040BJ","RA_OF_ASC_NODE":"141.4345","DECAY_DATE":null,"ECCENTRICITY":"0.00016060","GP_ID":"200863192","INCLINATION":"53.0546","TLE_LINE1":"1 48484U 21040BJ  22099.62268803 -.00005701  00000-0 -36419-3 0  9993","REF_FRAME":"TEME","EPOCH":"2022-04-09T14:56:40.245792","REV_AT_EPOCH":"5080","APOAPSIS":"548.349","ARG_OF_PERICENTER":"62.0006","OBJECT_TYPE":"PAYLOAD","MEAN_MOTION_DOT":"-0.00005701","SITE":"AFETR","MEAN_ELEMENT_THEORY":"SGP4","BSTAR":"-0.00036419000000","RCS_SIZE":"LARGE","TIME_SYSTEM":"UTC","EPHEMERIS_TYPE":"0","NORAD_CAT_ID":"48484","TLE_LINE2":"2 48484  53.0546 141.4345 0001606  62.0006 298.1145 15.06392415 50801","PERIAPSIS":"546.125","CENTER_NAME":"EARTH","LAUNCH_DATE":"2021-05-09","OBJECT_NAME":"STARLINK-2696","PERIOD":"95.593","COUNTRY_CODE":"US"},{"SITE":"AFETR","MEAN_ELEMENT_THEORY":"SGP4","BSTAR":"0.00020936000000","RCS_SIZE":"LARGE","TIME_SYSTEM":"UTC","EPHEMERIS_TYPE":"0","NORAD_CAT_ID":"48485","ARG_OF_PERICENTER":"60.9945","OBJECT_TYPE":"PAYLOAD","MEAN_MOTION_DOT":"0.00002838","PERIOD":"95.592","COUNTRY_CODE":"US","PERIAPSIS":"546.013","TLE_LINE2":"2 48485  53.0547 140.4126 0001733  60.9945 299.1217 15.06400198 50831","CENTER_NAME":"EARTH","LAUNCH_DATE":"2021-05-09","OBJECT_NAME":"STARLINK-2500","MEAN_MOTION":"15.06400198","FILE":"3395351","ELEMENT_SET_NO":"999","MEAN_ANOMALY":"299.1217","OBJECT_ID":"2021-040BK","RA_OF_ASC_NODE":"140.4126","SEMIMAJOR_AXIS":"6925.348","CLASSIFICATION_TYPE":"U","MEAN_MOTION_DDOT":"0.0000000000000","EPOCH":"2022-04-09T20:27:06.362208","REV_AT_EPOCH":"5083","APOAPSIS":"548.413","DECAY_DATE":null,"ECCENTRICITY":"0.00017330","GP_ID":"200861967","REF_FRAME":"TEME","TLE_LINE1":"1 48485U 21040BK  22099.85215697  .00002838  00000-0  20936-3 0  9995","INCLINATION":"53.0547"},{"TLE_LINE1":"1 48486U 21040BL  22099.59045987 -.00001184  00000-0 -60573-4 0  9997","INCLINATION":"53.0550","REF_FRAME":"TEME","ECCENTRICITY":"0.00018640","GP_ID":"200863221","DECAY_DATE":null,"APOAPSIS":"548.514","REV_AT_EPOCH":"5079","EPOCH":"2022-04-09T14:10:15.732768","CLASSIFICATION_TYPE":"U","MEAN_MOTION_DDOT":"0.0000000000000","SEMIMAJOR_AXIS":"6925.358","RA_OF_ASC_NODE":"141.5873","OBJECT_ID":"2021-040BL","FILE":"3395351","MEAN_ANOMALY":"308.6823","ELEMENT_SET_NO":"999","MEAN_MOTION":"15.06396907","OBJECT_NAME":"STARLINK-2496","LAUNCH_DATE":"2021-05-09","CENTER_NAME":"EARTH","PERIAPSIS":"545.932","TLE_LINE2":"2 48486  53.0550 141.5873 0001864  51.4333 308.6823 15.06396907 50794","COUNTRY_CODE":"US","PERIOD":"95.592","MEAN_MOTION_DOT":"-0.00001184","OBJECT_TYPE":"PAYLOAD","ARG_OF_PERICENTER":"51.4333","NORAD_CAT_ID":"48486","EPHEMERIS_TYPE":"0","RCS_SIZE":"LARGE","TIME_SYSTEM":"UTC","BSTAR":"-0.00006057300000","MEAN_ELEMENT_THEORY":"SGP4","SITE":"AFETR"},{"COUNTRY_CODE":"US","PERIOD":"95.592","OBJECT_NAME":"STARLINK-2494","LAUNCH_DATE":"2021-05-09","CENTER_NAME":"EARTH","TLE_LINE2":"2 48487  53.0515 141.5749 0001747  44.2232 315.8896 15.06402389 50800","PERIAPSIS":"545.996","EPHEMERIS_TYPE":"0","NORAD_CAT_ID":"48487","RCS_SIZE":"LARGE","TIME_SYSTEM":"UTC","BSTAR":"-0.00009107000000","MEAN_ELEMENT_THEORY":"SGP4","SITE":"AFETR","MEAN_MOTION_DOT":"-0.00001638","OBJECT_TYPE":"PAYLOAD","ARG_OF_PERICENTER":"44.2232","APOAPSIS":"548.416","REV_AT_EPOCH":"5080","EPOCH":"2022-04-09T14:15:33.514560","TLE_LINE1":"1 48487U 21040BM  22099.59413790 -.00001638  00000-0 -91070-4 0  9999","INCLINATION":"53.0515","REF_FRAME":"TEME","ECCENTRICITY":"0.00017470","GP_ID":"200863462","DECAY_DATE":null,"RA_OF_ASC_NODE":"141.5749","OBJECT_ID":"2021-040BM","MEAN_MOTION":"15.06402389","FILE":"3395351","ELEMENT_SET_NO":"999","MEAN_ANOMALY":"315.8896","MEAN_MOTION_DDOT":"0.0000000000000","CLASSIFICATION_TYPE":"U","SEMIMAJOR_AXIS":"6925.341"},{"EPHEMERIS_TYPE":"0","NORAD_CAT_ID":"48553","TIME_SYSTEM":"UTC","RCS_SIZE":"LARGE","BSTAR":"0.00000649520000","MEAN_ELEMENT_THEORY":"SGP4","SITE":"AFETR","MEAN_MOTION_DOT":"-0.00000185","OBJECT_TYPE":"PAYLOAD","ARG_OF_PERICENTER":"63.7028","COUNTRY_CODE":"US","PERIOD":"95.592","OBJECT_NAME":"STARLINK-2063","LAUNCH_DATE":"2021-05-15","CENTER_NAME":"EARTH","PERIAPSIS":"546.286","TLE_LINE2":"2 48553  53.0556  71.3813 0001360  63.7028 296.4100 15.06395246 49668","RA_OF_ASC_NODE":"71.3813","OBJECT_ID":"2021-041A","ELEMENT_SET_NO":"999","FILE":"3395351","MEAN_ANOMALY":"296.4100","MEAN_MOTION":"15.06395246","CLASSIFICATION_TYPE":"U","MEAN_MOTION_DDOT":"0.0000000000000","SEMIMAJOR_AXIS":"6925.363","APOAPSIS":"548.170","REV_AT_EPOCH":"4966","EPOCH":"2022-04-09T15:17:55.438080","REF_FRAME":"TEME","TLE_LINE1":"1 48553U 21041A   22099.63744720 -.00000185  00000-0  64952-5 0  9994","INCLINATION":"53.0556","ECCENTRICITY":"0.00013600","GP_ID":"200863701","DECAY_DATE":null},{"BSTAR":"0.00000594150000","MEAN_ELEMENT_THEORY":"SGP4","SITE":"AFETR","NORAD_CAT_ID":"48554","EPHEMERIS_TYPE":"0","TIME_SYSTEM":"UTC","RCS_SIZE":"LARGE","ARG_OF_PERICENTER":"80.9822","MEAN_MOTION_DOT":"-0.00000193","OBJECT_TYPE":"PAYLOAD","PERIOD":"95.592","COUNTRY_CODE":"US","LAUNCH_DATE":"2021-05-15","CENTER_NAME":"EARTH","TLE_LINE2":"2 48554  53.0545  71.3440 0001316  80.9822 279.1316 15.06398019 49665","PERIAPSIS":"546.308","OBJECT_NAME":"STARLINK-2139","RA_OF_ASC_NODE":"71.3440","OBJECT_ID":"2021-041B","FILE":"3395351","MEAN_MOTION":"15.06398019","ELEMENT_SET_NO":"999","MEAN_ANOMALY":"279.1316","SEMIMAJOR_AXIS":"6925.355","CLASSIFICATION_TYPE":"U","MEAN_MOTION_DDOT":"0.0000000000000","REV_AT_EPOCH":"4966","EPOCH":"2022-04-09T15:28:32.180160","APOAPSIS":"548.131","GP_ID":"200861975","ECCENTRICITY":"0.00013160","DECAY_DATE":null,"REF_FRAME":"TEME","TLE_LINE1":"1 48554U 21041B   22099.64481690 -.00000193  00000-0  59415-5 0  9997","INCLINATION":"53.0545"},{"EPOCH":"2022-04-09T16:09:40.166784","REV_AT_EPOCH":"4952","APOAPSIS":"548.533","DECAY_DATE":null,"GP_ID":"200863229","ECCENTRICITY":"0.00018970","REF_FRAME":"TEME","TLE_LINE1":"1 48555U 21041C   22099.67338156 -.00000542  00000-0 -17449-4 0  9998","INCLINATION":"53.0539","ELEMENT_SET_NO":"999","FILE":"3395351","MEAN_MOTION":"15.06398044","MEAN_ANOMALY":"309.0354","RA_OF_ASC_NODE":"81.2154","OBJECT_ID":"2021-041C","SEMIMAJOR_AXIS":"6925.355","CLASSIFICATION_TYPE":"U","MEAN_MOTION_DDOT":"0.0000000000000","PERIOD":"95.592","COUNTRY_CODE":"US","CENTER_NAME":"EARTH","TLE_LINE2":"2 48555  53.0539  81.2154 0001897  51.0804 309.0354 15.06398044 49522","PERIAPSIS":"545.906","LAUNCH_DATE":"2021-05-15","OBJECT_NAME":"STARLINK-2145","SITE":"AFETR","BSTAR":"-0.00001744900000","MEAN_ELEMENT_THEORY":"SGP4","TIME_SYSTEM":"UTC","RCS_SIZE":"LARGE","NORAD_CAT_ID":"48555","EPHEMERIS_TYPE":"0","ARG_OF_PERICENTER":"51.0804","MEAN_MOTION_DOT":"-0.00000542","OBJECT_TYPE":"PAYLOAD"}];
